0 DELTA 1 DEB
1 14621U 81070K   13279.98788230  .00000384  00000-0  11510-2 0  4009
2 14621 089.7823 034.0863 6062530 129.1675 353.0656 03.73560658303153
0 DELTA 1 DEB
1 14621U 81070K   13281.86684128  .00000446  00000-0  13994-2 0  4018
2 14621 089.7842 034.0790 6061923 128.4858 359.9257 03.73561932303229
0 DELTA 1 DEB
1 14621U 81070K   13285.88418503  .00000372  00000-0  12904-2 0  4036
2 14621 089.7875 034.0641 6061042 127.0247 002.5881 03.73568654303377
0 DELTA 1 DEB
1 14621U 81070K   13289.09391325  .00000346  00000-0  12143-2 0  4042
2 14621 089.7904 034.0522 6060290 125.8593 359.1884 03.73572864303497
0 DELTA 1 DEB
1 14621U 81070K   13291.77133877  .00000373  00000-0  12547-2 0  4055
2 14621 089.7926 034.0427 6059566 124.8865 359.9594 03.73573982303599
0 DELTA 1 DEB
1 14621U 81070K   13293.90843516  .00000256  00000-0  78120-3 0  4061
2 14621 089.7943 034.0352 6058783 124.1130 354.0694 03.73575609303677
